YAOGAN-43 01D           
1 60461U 24148D   26068.43560480  .00010676  00000+0  37766-3 0  9999
2 60461  35.0010  61.7102 0002556 326.2473  33.8080 15.28369377 87008
STARLINK-34481          
1 65104U 25167AC  26068.30343686  .00046911  00000+0  15861-2 0  9995
2 65104  53.1604  28.2391 0001182  67.6360 292.4766 15.30197964 33425
